OBJECT_NAME,OBJECT_ID,EPOCH,MEAN_MOTION,ECCENTRICITY,INCLINATION,RA_OF_ASC_NODE,ARG_OF_PERICENTER,MEAN_ANOMALY,EPHEMERIS_TYPE,CLASSIFICATION_TYPE,NORAD_CAT_ID,ELEMENT_SET_NO,REV_AT_EPOCH,BSTAR,MEAN_MOTION_DOT,MEAN_MOTION_DDOT
GAOFEN-11 01,2018-063A,2026-07-01T15:32:57.416928,15.55707790,.00021172,97.1289,249.4893,275.4555,84.6459,0,U,43585,999,44259,.28234162E-3,.19347E-3,0
ICESAT-2,2018-070A,2026-07-01T13:26:54.908736,15.28281302,.00061719,92.0094,294.8624,87.4148,272.7808,0,U,43613,999,43465,.39258555E-3,.1082E-3,0
HYSIS,2018-096A,2026-07-01T15:00:35.766144,14.78647912,.00018785,97.9839,249.2600,89.2763,270.8663,0,U,43719,999,40955,.24035329E-3,.1709E-4,0
KAZSTSAT,2018-099AB,2026-07-01T00:58:28.648704,14.99916431,.00083909,97.4297,213.3415,30.8558,329.3158,0,U,43783,999,41338,.17450907E-3,.211E-4,0
SAUDISAT 5A,2018-102A,2026-07-01T15:16:25.389408,15.28197981,.00112347,97.3059,243.9395,85.4495,274.8028,0,U,43831,999,41788,.24770723E-3,.6746E-4,0
SAUDISAT 5B,2018-102C,2026-07-01T15:40:06.780864,15.28446778,.00119743,97.3169,247.0516,87.1483,273.1127,0,U,43833,999,41800,.2310764E-3,.6337E-4,0
GAOFEN-10R,2019-066A,2026-07-01T15:50:15.092160,14.83031772,.00071821,98.0503,136.3446,87.7447,272.4588,0,U,44622,999,36452,.16023658E-3,.1249E-4,0
CARTOSAT-3,2019-081A,2026-07-01T15:32:09.057120,15.19243074,.00133366,97.4298,244.2818,102.4998,257.7729,0,U,44804,999,36566,.31963879E-3,.6684E-4,0
GAOFEN-12 01,2019-082A,2026-07-01T14:39:55.937376,14.80470252,.00016854,97.8102,188.6098,55.7124,304.4248,0,U,44819,999,35622,.6097632E-4,.416E-5,0
CSG-1,2019-092A,2026-07-01T15:12:23.535936,14.82156441,.00014014,97.8891,6.0271,90.8228,269.3145,0,U,44873,999,35361,.61646442E-4,.439E-5,0
NEMO-HD,2020-061F,2026-07-01T13:48:36.402912,15.44885189,.0001552,97.1911,244.3850,73.8124,286.3296,0,U,46277,999,32420,.28898885E-3,.13492E-3,0
SENTINEL-6A,2020-086A,2026-07-01T03:20:22.746624,12.80929949,.00078344,66.0412,106.0749,269.9806,90.0312,0,U,46984,999,26211,.24150648E-4,-.55E-6,0
CAS500-1,2021-022A,2026-07-01T16:13:32.750400,15.20134554,.00034917,97.3885,77.6355,226.2926,133.8021,0,U,47932,999,29296,.32358108E-3,.6931E-4,0
GAOFEN-12 02,2021-026A,2026-07-01T14:58:05.352384,14.80307318,.00048199,97.9925,180.7454,170.3036,189.8270,0,U,48079,999,28389,.592363E-4,.399E-5,0
PLEIADES NEO 3,2021-034A,2026-07-01T13:40:50.827872,14.81675134,.00013629,97.8941,257.1295,92.4391,267.6978,0,U,48268,999,27978,.10627388E-3,.784E-5,0
PLEIADES NEO 4,2021-073E,2026-07-01T09:37:42.206880,14.81677791,.00013574,97.8938,256.9596,89.2365,270.9003,0,U,49070,999,26347,.10047507E-3,.739E-5,0
LANDSAT 9,2021-088A,2026-07-01T14:48:47.770848,14.57107080,.00012077,98.2276,252.6198,87.2680,272.8657,0,U,49260,999,25310,.90347824E-4,.362E-5,0
CSG-2,2022-008A,2026-07-01T14:23:46.469760,14.82154144,.00015485,97.8881,5.9881,86.3352,273.8038,0,U,51444,999,23872,.69917676E-4,.504E-5,0
GAOFEN-12 03,2022-069A,2026-07-01T15:44:48.532992,14.80057071,.00024224,97.8267,70.1610,88.2597,271.8893,0,U,52912,999,21675,.13739998E-3,.99E-5,0
SWOT,2022-173A,2026-07-01T13:33:29.197728,14.00171281,.00003194,77.6101,15.8997,88.0114,272.1074,0,U,54754,999,18116,.70040004E-4,.101E-5,0
GAOFEN-12 04,2023-123A,2026-07-01T14:31:51.691296,14.79753681,.00039561,97.9114,100.4114,77.5716,282.5938,0,U,57654,999,15476,.14577843E-3,.1045E-4,0
PARS 1,2024-039Q,2026-07-01T14:52:50.602368,15.46027523,.00111698,97.4828,163.9973,69.1545,291.0899,0,U,59065,999,13087,.27801311E-3,.13518E-3,0
RESURS-P 4,2024-061A,2026-07-01T15:08:55.462272,15.32212648,.0002995,97.2759,130.2791,108.8954,251.2613,0,U,59371,999,12597,.10769075E-3,.3273E-4,0
LEGION 1,2024-081A,2026-07-01T13:02:25.976544,15.16764197,.00081568,97.5017,260.2475,325.7942,34.2765,0,U,59625,999,11971,.21339304E-3,.4124E-4,0
LEGION 2,2024-081B,2026-07-01T12:10:54.002208,15.16740953,.00098742,97.5018,260.3092,288.0704,71.9453,0,U,59626,999,11971,.2258399E-3,.4367E-4,0
ALOS-4 (DAICHI-4),2024-123A,2026-07-01T13:32:37.311072,14.79471609,.00016291,97.9219,279.5341,97.9506,262.1890,0,U,60182,999,10800,.22056493E-3,.1596E-4,0
LEGION 3,2024-146A,2026-07-01T13:28:10.792128,15.16060965,.00088535,45.0025,313.4630,250.2776,109.7147,0,U,60452,999,10420,.25928372E-3,.4816E-4,0
LEGION 4,2024-146B,2026-07-01T15:07:15.469824,15.16147272,.0012033,45.0025,45.0011,28.4067,331.7465,0,U,60453,999,10306,.26136498E-3,.4871E-4,0
SENTINEL-2C,2024-157A,2026-07-01T15:33:11.577024,14.30821710,.00009018,98.5690,257.2255,93.8234,266.3052,0,U,60989,999,9505,.59542898E-4,.112E-5,0
IONOSFERA-M 1,2024-199A,2026-07-01T14:39:15.395040,14.22756917,.00022018,98.7154,55.6294,91.2572,268.8858,0,U,61735,999,12975,.42451612E-4,.51E-6,0
