GAOFEN-11 01            
1 43585U 18063A   26182.64788677  .00019347  00000+0  28234-3 0  9990
2 43585  97.1289 249.4893 0002117 275.4555  84.6459 15.55707790442592
ICESAT-2                
1 43613U 18070A   26182.56035774  .00010820  00000+0  39259-3 0  9990
2 43613  92.0094 294.8624 0006171  87.4148 272.7808 15.28281302434653
HYSIS                   
1 43719U 18096A   26182.62541396  .00001709  00000+0  24035-3 0  9996
2 43719  97.9839 249.2600 0001878  89.2763 270.8663 14.78647912409557
KAZSTSAT                
1 43783U 18099AB  26182.04060936  .00002110  00000+0  17451-3 0  9993
2 43783  97.4297 213.3415 0008390  30.8558 329.3158 14.99916431413380
SAUDISAT 5A             
1 43831U 18102A   26182.63640497  .00006746  00000+0  24771-3 0  9995
2 43831  97.3059 243.9395 0011234  85.4495 274.8028 15.28197981417885
SAUDISAT 5B             
1 43833U 18102C   26182.65285626  .00006337  00000+0  23108-3 0  9997
2 43833  97.3169 247.0516 0011974  87.1483 273.1127 15.28446778418004
GAOFEN-10R              
1 44622U 19066A   26182.65989690  .00001249  00000+0  16024-3 0  9992
2 44622  98.0503 136.3446 0007182  87.7447 272.4588 14.83031772364529
CARTOSAT-3              
1 44804U 19081A   26182.64732705  .00006684  00000+0  31964-3 0  9991
2 44804  97.4298 244.2818 0013336 102.4998 257.7729 15.19243074365660
GAOFEN-12 01            
1 44819U 19082A   26182.61106409  .00000416  00000+0  60976-4 0  9994
2 44819  97.8102 188.6098 0001685  55.7124 304.4248 14.80470252356225
CSG-1                   
1 44873U 19092A   26182.63360574  .00000439  00000+0  61646-4 0  9992
2 44873  97.8891   6.0271 0001401  90.8228 269.3145 14.82156441353615
NEMO-HD                 
1 46277U 20061F   26182.57542133  .00013492  00000+0  28899-3 0  9991
2 46277  97.1911 244.3850 0001552  73.8124 286.3296 15.44885189324200
SENTINEL-6A             
1 46984U 20086A   26182.13915216 -.00000055  00000+0  24151-4 0  9991
2 46984  66.0412 106.0749 0007834 269.9806  90.0312 12.80929949262111
CAS500-1                
1 47932U 21022A   26182.67607350  .00006931  00000+0  32358-3 0  9997
2 47932  97.3885  77.6355 0003491 226.2926 133.8021 15.20134554292962
GAOFEN-12 02            
1 48079U 21026A   26182.62367306  .00000399  00000+0  59236-4 0  9990
2 48079  97.9925 180.7454 0004819 170.3036 189.8270 14.80307318283892
PLEIADES NEO 3          
1 48268U 21034A   26182.57003273  .00000784  00000+0  10627-3 0  9991
2 48268  97.8941 257.1295 0001362  92.4391 267.6978 14.81675134279787
PLEIADES NEO 4          
1 49070U 21073E   26182.40118295  .00000739  00000+0  10048-3 0  9996
2 49070  97.8938 256.9596 0001357  89.2365 270.9003 14.81677791263471
LANDSAT 9               
1 49260U 21088A   26182.61721957  .00000362  00000+0  90348-4 0  9995
2 49260  98.2276 252.6198 0001207  87.2680 272.8657 14.57107080253102
CSG-2                   
1 51444U 22008A   26182.59984340  .00000504  00000+0  69918-4 0  9996
2 51444  97.8881   5.9881 0001548  86.3352 273.8038 14.82154144238724
GAOFEN-12 03            
1 52912U 22069A   26182.65611728  .00000990  00000+0  13740-3 0  9998
2 52912  97.8267  70.1610 0002422  88.2597 271.8893 14.80057071216756
SWOT                    
1 54754U 22173A   26182.56492127  .00000101  00000+0  70040-4 0  9991
2 54754  77.6101  15.8997 0000319  88.0114 272.1074 14.00171281181168
GAOFEN-12 04            
1 57654U 23123A   26182.60545939  .00001045  00000+0  14578-3 0  9995
2 57654  97.9114 100.4114 0003956  77.5716 282.5938 14.79753681154768
PARS 1                  
1 59065U 24039Q   26182.62003012  .00013518  00000+0  27801-3 0  9994
2 59065  97.4828 163.9973 0011169  69.1545 291.0899 15.46027523130873
RESURS-P 4              
1 59371U 24061A   26182.63119748  .00003273  00000+0  10769-3 0  9996
2 59371  97.2759 130.2791 0002995 108.8954 251.2613 15.32212648125977
LEGION 1                
1 59625U 24081A   26182.54335621  .00004124  00000+0  21339-3 0  9991
2 59625  97.5017 260.2475 0008156 325.7942  34.2765 15.16764197119719
LEGION 2                
1 59626U 24081B   26182.50756947  .00004367  00000+0  22584-3 0  9998
2 59626  97.5018 260.3092 0009874 288.0704  71.9453 15.16740953119718
ALOS-4 (DAICHI-4)       
1 60182U 24123A   26182.56432073  .00001596  00000+0  22056-3 0  9996
2 60182  97.9219 279.5341 0001629  97.9506 262.1890 14.79471609108006
LEGION 3                
1 60452U 24146A   26182.56123602  .00004816  00000+0  25928-3 0  9995
2 60452  45.0025 313.4630 0008853 250.2776 109.7147 15.16060965104203
LEGION 4                
1 60453U 24146B   26182.63004016  .00004871  00000+0  26136-3 0  9994
2 60453  45.0025  45.0011 0012033  28.4067 331.7465 15.16147272103068
SENTINEL-2C             
1 60989U 24157A   26182.64805066  .00000112  00000+0  59543-4 0  9998
2 60989  98.5690 257.2255 0000901  93.8234 266.3052 14.30821710 95058
IONOSFERA-M 1           
1 61735U 24199A   26182.61059485  .00000051  00000+0  42452-4 0  9990
2 61735  98.7154  55.6294 0002201  91.2572 268.8858 14.22756917129753
